IRIDIUM 26              
1 24903U 97043A   25354.14811280  .00000316  00000+0  99373-4 0  9999
2 24903  86.3952  32.4488 0002220  98.7991 261.3458 14.37333158483452
IRIDIUM 22              
1 24907U 97043E   25354.09331757  .00000263  00000+0  83522-4 0  9993
2 24907  86.3956  36.1714 0002333  94.6239 265.5225 14.36126303483457
DUMMY MASS 1            
1 24925U 97048A   25354.13984226  .00000309  00000+0  31216-4 0  9992
2 24925  86.3338  49.2820 0005950 185.8729 174.2427 14.87188678532767
DUMMY MASS 2            
1 24926U 97048B   25354.13305551  .00000309  00000+0  31372-4 0  9994
2 24926  86.3339  50.9274 0006196 201.3943 158.7023 14.86939202532536
IRIDIUM 29              
1 24944U 97051A   25353.90936953  .00000291  00000+0  92287-4 0  9990
2 24944  86.3949  65.9333 0002257  91.3036 268.8420 14.36668112479931
IRIDIUM 33              
1 24946U 97051C   25353.47017910  .00000270  00000+0  87670-4 0  9994
2 24946  86.3867  65.3967 0007833 177.5382 182.5855 14.35041894479312
IRIDIUM 28              
1 24948U 97051E   25353.48746564  .00000304  00000+0  94975-4 0  9995
2 24948  86.3955  63.5201 0002150 109.7332 250.4097 14.37567837480465
IRIDIUM 36              
1 24967U 97056C   25353.35233102  .00000315  00000+0  97944-4 0  9997
2 24967  86.3963  95.2044 0002249 101.1266 259.0185 14.37789620478829
